{"type": "FeatureCollection", "features": [ {"type": "Feature", "properties": {"norad_id": 34637, "name": "COSMOS 2251 DEB", "group": "cosmos-2251-debris", "lat": 7.768814446724158, "lon": -109.10960163408167, "alt_km": 664.8563034387389, "timestamp": "2025-12-27T10:28:59.189031+00:00", "meta": {"OBJECT_NAME": "COSMOS 2251 DEB", "OBJECT_ID": "1993-036XJ", "EPOCH": "2025-12-27T04:54:29.325312", "MEAN_MOTION": 14.60219299, "ECCENTRICITY": 0.0048674, "INCLINATION": 74.0491, "RA_OF_ASC_NODE": 73.5695, "ARG_OF_PERICENTER": 140.1125, "MEAN_ANOMALY": 250.7966, "EPHEMERIS_TYPE": 0, "CLASSIFICATION_TYPE": "U", "NORAD_CAT_ID": 34637, "ELEMENT_SET_NO": 999, "REV_AT_EPOCH": 88738, "BSTAR": 0.00094633, "MEAN_MOTION_DOT": 4.612e-05, "MEAN_MOTION_DDOT": 0}, "tle": {"line1": "1 34637U 93036XJ  25361.20450608  .00004612  00000+0  94633-3 0  9996", "line2": "2 34637  74.0491  73.5695 0048674 140.1125 250.7966 14.60219299887380"}}, "geometry": {"type": "Point", "coordinates": [-109.10960163408167, 7.768814446724158]}}, {"type": "Feature", "properties": {"norad_id": 34641, "name": "COSMOS 2251 DEB", "group": "cosmos-2251-debris", "lat": 73.24022876781558, "lon": 159.2808648418434, "alt_km": 719.8168308509557, "timestamp": "2025-12-27T10:28:59.189041+00:00", "meta": {"OBJECT_NAME": "COSMOS 2251 DEB", "OBJECT_ID": "1993-036XN", "EPOCH": "2025-12-26T14:54:30.263040", "MEAN_MOTION": 14.5208918, "ECCENTRICITY": 0.0019151, "INCLINATION": 73.8391, "RA_OF_ASC_NODE": 55.1782, "ARG_OF_PERICENTER": 328.0054, "MEAN_ANOMALY": 184.3533, "EPHEMERIS_TYPE": 0, "CLASSIFICATION_TYPE": "U", "NORAD_CAT_ID": 34641, "ELEMENT_SET_NO": 999, "REV_AT_EPOCH": 88457, "BSTAR": 0.00070823, "MEAN_MOTION_DOT": 2.845e-05, "MEAN_MOTION_DDOT": 0}, "tle": {"line1": "1 34641U 93036XN  25360.62118360  .00002845  00000+0  70823-3 0  9993", "line2": "2 34641  73.8391  55.1782 0019151 328.0054 184.3533 14.52089180884575"}}, "geometry": {"type": "Point", "coordinates": [159.2808648418434, 73.24022876781558]}}, {"type": "Feature", "properties": {"norad_id": 34642, "name": "COSMOS 2251 DEB", "group": "cosmos-2251-debris", "lat": -68.43095465461155, "lon": -179.13599675740286, "alt_km": 987.401823194923, "timestamp": "2025-12-27T10:28:59.189052+00:00", "meta": {"OBJECT_NAME": "COSMOS 2251 DEB", "OBJECT_ID": "1993-036XP", "EPOCH": "2025-12-27T04:12:31.664736", "MEAN_MOTION": 13.99013931, "ECCENTRICITY": 0.0206399, "INCLINATION": 74.0044, "RA_OF_ASC_NODE": 314.7959, "ARG_OF_PERICENTER": 131.1703, "MEAN_ANOMALY": 246.016, "EPHEMERIS_TYPE": 0, "CLASSIFICATION_TYPE": "U", "NORAD_CAT_ID": 34642, "ELEMENT_SET_NO": 999, "REV_AT_EPOCH": 85495, "BSTAR": 0.00094193, "MEAN_MOTION_DOT": 1.612e-05, "MEAN_MOTION_DDOT": 0}, "tle": {"line1": "1 34642U 93036XP  25361.17536649  .00001612  00000+0  94193-3 0  9996", "line2": "2 34642  74.0044 314.7959 0206399 131.1703 246.0160 13.99013931854952"}}, "geometry": {"type": "Point", "coordinates": [-179.13599675740286, -68.43095465461155]}}, {"type": "Feature", "properties": {"norad_id": 34671, "name": "COSMOS 2251 DEB", "group": "cosmos-2251-debris", "lat": -73.96449627044147, "lon": 20.704466259640785, "alt_km": 676.1707760483423, "timestamp": "2025-12-27T10:28:59.189062+00:00", "meta": {"OBJECT_NAME": "COSMOS 2251 DEB", "OBJECT_ID": "1993-036XR", "EPOCH": "2025-12-26T17:34:24.223584", "MEAN_MOTION": 14.67181745, "ECCENTRICITY": 0.00103299, "INCLINATION": 74.0276, "RA_OF_ASC_NODE": 107.28, "ARG_OF_PERICENTER": 189.2893, "MEAN_ANOMALY": 321.9941, "EPHEMERIS_TYPE": 0, "CLASSIFICATION_TYPE": "U", "NORAD_CAT_ID": 34671, "ELEMENT_SET_NO": 999, "REV_AT_EPOCH": 88502, "BSTAR": 0.0017995005, "MEAN_MOTION_DOT": 0.00010118, "MEAN_MOTION_DDOT": 0}, "tle": {"line1": "1 34671U 93036XR  25360.73222481  .00010118  00000+0  17995-2 0  9990", "line2": "2 34671  74.0276 107.2800 0010329 189.2893 321.9941 14.67181745885028"}}, "geometry": {"type": "Point", "coordinates": [20.704466259640785, -73.96449627044147]}}, {"type": "Feature", "properties": {"norad_id": 34672, "name": "COSMOS 2251 DEB", "group": "cosmos-2251-debris", "lat": -74.0110704766725, "lon": -168.99954931228, "alt_km": 773.2261515288819, "timestamp": "2025-12-27T10:28:59.189073+00:00", "meta": {"OBJECT_NAME": "COSMOS 2251 DEB", "OBJECT_ID": "1993-036XS", "EPOCH": "2025-12-23T01:39:52.431840", "MEAN_MOTION": 14.36424251, "ECCENTRICITY": 0.00243004, "INCLINATION": 74.0343, "RA_OF_ASC_NODE": 286.6106, "ARG_OF_PERICENTER": 356.389, "MEAN_ANOMALY": 18.9966, "EPHEMERIS_TYPE": 0, "CLASSIFICATION_TYPE": "U", "NORAD_CAT_ID": 34672, "ELEMENT_SET_NO": 999, "REV_AT_EPOCH": 65326, "BSTAR": 0.00025150328, "MEAN_MOTION_DOT": 7.13e-06, "MEAN_MOTION_DDOT": 0}, "tle": {"line1": "1 34672U 93036XS  25357.06935685  .00000713  00000+0  25150-3 0  9993", "line2": "2 34672  74.0343 286.6106 0024300 356.3890  18.9966 14.36424251653260"}}, "geometry": {"type": "Point", "coordinates": [-168.99954931228, -74.0110704766725]}}, {"type": "Feature", "properties": {"norad_id": 34678, "name": "COSMOS 2251 DEB", "group": "cosmos-2251-debris", "lat": 57.794486502375136, "lon": 131.9455197688144, "alt_km": 786.9723380422574, "timestamp": "2025-12-27T10:28:59.189083+00:00", "meta": {"OBJECT_NAME": "COSMOS 2251 DEB", "OBJECT_ID": "1993-036XY", "EPOCH": "2025-12-27T02:05:48.736032", "MEAN_MOTION": 14.30067643, "ECCENTRICITY": 0.0024869, "INCLINATION": 74.0379, "RA_OF_ASC_NODE": 339.607, "ARG_OF_PERICENTER": 24.4034, "MEAN_ANOMALY": 95.3928, "EPHEMERIS_TYPE": 0, "CLASSIFICATION_TYPE": "U", "NORAD_CAT_ID": 34678, "ELEMENT_SET_NO": 999, "REV_AT_EPOCH": 87584, "BSTAR": 4.141e-05, "MEAN_MOTION_DOT": 8.2e-07, "MEAN_MOTION_DDOT": 0}, "tle": {"line1": "1 34678U 93036XY  25361.08736963  .00000082  00000+0  41410-4 0  9991", "line2": "2 34678  74.0379 339.6070 0024869  24.4034  95.3928 14.30067643875846"}}, "geometry": {"type": "Point", "coordinates": [131.9455197688144, 57.794486502375136]}}, {"type": "Feature", "properties": {"norad_id": 34680, "name": "COSMOS 2251 DEB", "group": "cosmos-2251-debris", "lat": -37.55358535939863, "lon": -65.49778017535567, "alt_km": 692.5257100492554, "timestamp": "2025-12-27T10:28:59.189097+00:00", "meta": {"OBJECT_NAME": "COSMOS 2251 DEB", "OBJECT_ID": "1993-036YA", "EPOCH": "2025-12-26T15:42:39.280320", "MEAN_MOTION": 14.60769199, "ECCENTRICITY": 0.0006141, "INCLINATION": 74.0436, "RA_OF_ASC_NODE": 103.2882, "ARG_OF_PERICENTER": 205.4057, "MEAN_ANOMALY": 222.2258, "EPHEMERIS_TYPE": 0, "CLASSIFICATION_TYPE": "U", "NORAD_CAT_ID": 34680, "ELEMENT_SET_NO": 999, "REV_AT_EPOCH": 88531, "BSTAR": 0.0011906, "MEAN_MOTION_DOT": 5.787e-05, "MEAN_MOTION_DDOT": 0}, "tle": {"line1": "1 34680U 93036YA  25360.65462130  .00005787  00000+0  11906-2 0  9990", "line2": "2 34680  74.0436 103.2882 0006141 205.4057 222.2258 14.60769199885316"}}, "geometry": {"type": "Point", "coordinates": [-65.49778017535567, -37.55358535939863]}}, {"type": "Feature", "properties": {"norad_id": 34681, "name": "COSMOS 2251 DEB", "group": "cosmos-2251-debris", "lat": -25.329633419649095, "lon": 89.11349026434729, "alt_km": 629.4590924844542, "timestamp": "2025-12-27T10:28:59.189108+00:00", "meta": {"OBJECT_NAME": "COSMOS 2251 DEB", "OBJECT_ID": "1993-036YB", "EPOCH": "2025-12-27T01:58:18.167808", "MEAN_MOTION": 14.835364, "ECCENTRICITY": 0.0025637, "INCLINATION": 74.0624, "RA_OF_ASC_NODE": 262.0409, "ARG_OF_PERICENTER": 316.8088, "MEAN_ANOMALY": 156.5247, "EPHEMERIS_TYPE": 0, "CLASSIFICATION_TYPE": "U", "NORAD_CAT_ID": 34681, "ELEMENT_SET_NO": 999, "REV_AT_EPOCH": 89483, "BSTAR": 0.0015022, "MEAN_MOTION_DOT": 0.00012427, "MEAN_MOTION_DDOT": 0}, "tle": {"line1": "1 34681U 93036YB  25361.08215472  .00012427  00000+0  15022-2 0  9996", "line2": "2 34681  74.0624 262.0409 0025637 316.8088 156.5247 14.83536400894833"}}, "geometry": {"type": "Point", "coordinates": [89.11349026434729, -25.329633419649095]}}, {"type": "Feature", "properties": {"norad_id": 34682, "name": "COSMOS 2251 DEB", "group": "cosmos-2251-debris", "lat": 65.47946494309173, "lon": -163.86276406568808, "alt_km": 686.9703716476015, "timestamp": "2025-12-27T10:28:59.189118+00:00", "meta": {"OBJECT_NAME": "COSMOS 2251 DEB", "OBJECT_ID": "1993-036YC", "EPOCH": "2025-12-27T03:32:31.185024", "MEAN_MOTION": 14.5899415, "ECCENTRICITY": 0.0017515, "INCLINATION": 74.0391, "RA_OF_ASC_NODE": 55.5467, "ARG_OF_PERICENTER": 186.9274, "MEAN_ANOMALY": 203.656, "EPHEMERIS_TYPE": 0, "CLASSIFICATION_TYPE": "U", "NORAD_CAT_ID": 34682, "ELEMENT_SET_NO": 999, "REV_AT_EPOCH": 88896, "BSTAR": 0.00082906, "MEAN_MOTION_DOT": 3.873e-05, "MEAN_MOTION_DDOT": 0}, "tle": {"line1": "1 34682U 93036YC  25361.14758316  .00003873  00000+0  82906-3 0  9994", "line2": "2 34682  74.0391  55.5467 0017515 186.9274 203.6560 14.58994150888964"}}, "geometry": {"type": "Point", "coordinates": [-163.86276406568808, 65.47946494309173]}}, {"type": "Feature", "properties": {"norad_id": 34683, "name": "COSMOS 2251 DEB", "group": "cosmos-2251-debris", "lat": -18.765598099713365, "lon": -110.40940626678783, "alt_km": 671.4852760646845, "timestamp": "2025-12-27T10:28:59.189127+00:00", "meta": {"OBJECT_NAME": "COSMOS 2251 DEB", "OBJECT_ID": "1993-036YD", "EPOCH": "2025-12-25T15:38:47.520960", "MEAN_MOTION": 14.64647296, "ECCENTRICITY": 0.0017296, "INCLINATION": 74.0287, "RA_OF_ASC_NODE": 67.4379, "ARG_OF_PERICENTER": 182.0594, "MEAN_ANOMALY": 330.0429, "EPHEMERIS_TYPE": 0, "CLASSIFICATION_TYPE": "U", "NORAD_CAT_ID": 34683, "ELEMENT_SET_NO": 999, "REV_AT_EPOCH": 88537, "BSTAR": 0.0012249, "MEAN_MOTION_DOT": 6.502e-05, "MEAN_MOTION_DDOT": 0}, "tle": {"line1": "1 34683U 93036YD  25359.65193890  .00006502  00000+0  12249-2 0  9992", "line2": "2 34683  74.0287  67.4379 0017296 182.0594 330.0429 14.64647296885375"}}, "geometry": {"type": "Point", "coordinates": [-110.40940626678783, -18.765598099713365]}}]}